{
"type":"FeatureCollection",

"features":[


{

"type":"Feature",

"geometry":{

"type":"Point",

"coordinates":[30.0619,-1.9441]

},

"properties":{

"name":"Rwanda GIS Experience",

"description":"GIS mapping, geological data and mineral resource mapping."

}

},




{

"type":"Feature",

"geometry":{

"type":"Point",

"coordinates":[13.1910,55.7047]

},

"properties":{

"name":"Lund University",

"description":"Master of Science in Geomatics."

}

},





{

"type":"Feature",

"geometry":{

"type":"Point",

"coordinates":[11.9746,57.7089]

},

"properties":{

"name":"Gothenburg",

"description":"GIS Engineering and Hydrographic Data Processing."

}

}



]

}
